{"type": "FeatureCollection", "features": [ {"type": "Feature", "properties": {"norad_id": 28659, "name": "DIRECTV 8", "group": "intelsat", "lat": -0.025780998619160778, "lon": -136.59478448557945, "alt_km": 35780.11667299714, "timestamp": "2025-12-21T16:47:54.396434+00:00", "meta": {"OBJECT_NAME": "DIRECTV 8", "OBJECT_ID": "2005-019A", "EPOCH": "2025-12-21T10:52:16.196736", "MEAN_MOTION": 1.00270145, "ECCENTRICITY": 0.000293, "INCLINATION": 0.0248, "RA_OF_ASC_NODE": 18.6717, "ARG_OF_PERICENTER": 263.7234, "MEAN_ANOMALY": 211.896, "EPHEMERIS_TYPE": 0, "CLASSIFICATION_TYPE": "U", "NORAD_CAT_ID": 28659, "ELEMENT_SET_NO": 999, "REV_AT_EPOCH": 7529, "BSTAR": 0, "MEAN_MOTION_DOT": 0, "MEAN_MOTION_DDOT": 0}, "tle": {"line1": "1 28659U 05019A   25355.45296524  .00000000  00000+0  00000+0 0  9990", "line2": "2 28659   0.0248  18.6717 0002930 263.7234 211.8960  1.00270145 75297"}}, "geometry": {"type": "Point", "coordinates": [-136.59478448557945, -0.025780998619160778]}}, {"type": "Feature", "properties": {"norad_id": 28702, "name": "GALAXY 28 (G-28)", "group": "intelsat", "lat": 0.341244633507659, "lon": -106.20234366032194, "alt_km": 35774.751704372735, "timestamp": "2025-12-21T16:47:54.396446+00:00", "meta": {"OBJECT_NAME": "GALAXY 28 (G-28)", "OBJECT_ID": "2005-022A", "EPOCH": "2025-12-20T00:49:30.482112", "MEAN_MOTION": 1.00271047, "ECCENTRICITY": 0.00029384, "INCLINATION": 2.8382, "RA_OF_ASC_NODE": 81.1982, "ARG_OF_PERICENTER": 194.0723, "MEAN_ANOMALY": 97.2981, "EPHEMERIS_TYPE": 0, "CLASSIFICATION_TYPE": "U", "NORAD_CAT_ID": 28702, "ELEMENT_SET_NO": 999, "REV_AT_EPOCH": 5017, "BSTAR": 0, "MEAN_MOTION_DOT": -1.65e-06, "MEAN_MOTION_DDOT": 0}, "tle": {"line1": "1 28702U 05022A   25354.03438058 -.00000165  00000+0  00000+0 0  9999", "line2": "2 28702   2.8382  81.1982 0002938 194.0723  97.2981  1.00271047 50172"}}, "geometry": {"type": "Point", "coordinates": [-106.20234366032194, 0.341244633507659]}}, {"type": "Feature", "properties": {"norad_id": 29236, "name": "GALAXY 16 (G-16)", "group": "intelsat", "lat": 0.0009004700974399302, "lon": -116.53699321307016, "alt_km": 35777.10327104894, "timestamp": "2025-12-21T16:47:54.396475+00:00", "meta": {"OBJECT_NAME": "GALAXY 16 (G-16)", "OBJECT_ID": "2006-023A", "EPOCH": "2025-12-21T10:59:40.042176", "MEAN_MOTION": 1.00270962, "ECCENTRICITY": 0.0002486, "INCLINATION": 0.0034, "RA_OF_ASC_NODE": 102.47, "ARG_OF_PERICENTER": 169.9945, "MEAN_ANOMALY": 243.7231, "EPHEMERIS_TYPE": 0, "CLASSIFICATION_TYPE": "U", "NORAD_CAT_ID": 29236, "ELEMENT_SET_NO": 999, "REV_AT_EPOCH": 7119, "BSTAR": 0, "MEAN_MOTION_DOT": -1.04e-06, "MEAN_MOTION_DDOT": 0}, "tle": {"line1": "1 29236U 06023A   25355.45810234 -.00000104  00000+0  00000+0 0  9994", "line2": "2 29236   0.0034 102.4700 0002486 169.9945 243.7231  1.00270962 71195"}}, "geometry": {"type": "Point", "coordinates": [-116.53699321307016, 0.0009004700974399302]}}, {"type": "Feature", "properties": {"norad_id": 29494, "name": "DIRECTV 9S", "group": "intelsat", "lat": 0.7085923018289872, "lon": -118.73125685410733, "alt_km": 35776.19409975392, "timestamp": "2025-12-21T16:47:54.396488+00:00", "meta": {"OBJECT_NAME": "DIRECTV 9S", "OBJECT_ID": "2006-043A", "EPOCH": "2025-12-21T10:58:23.090016", "MEAN_MOTION": 1.00271523, "ECCENTRICITY": 0.0002849, "INCLINATION": 1.9613, "RA_OF_ASC_NODE": 83.1219, "ARG_OF_PERICENTER": 193.3177, "MEAN_ANOMALY": 237.2219, "EPHEMERIS_TYPE": 0, "CLASSIFICATION_TYPE": "U", "NORAD_CAT_ID": 29494, "ELEMENT_SET_NO": 999, "REV_AT_EPOCH": 4960, "BSTAR": 0, "MEAN_MOTION_DOT": -9.2e-07, "MEAN_MOTION_DDOT": 0}, "tle": {"line1": "1 29494U 06043A   25355.45721169 -.00000092  00000+0  00000+0 0  9996", "line2": "2 29494   1.9613  83.1219 0002849 193.3177 237.2219  1.00271523 49604"}}, "geometry": {"type": "Point", "coordinates": [-118.73125685410733, 0.7085923018289872]}}, {"type": "Feature", "properties": {"norad_id": 31307, "name": "GALAXY 17 (G-17)", "group": "intelsat", "lat": 0.18021498066256694, "lon": -102.47897157482477, "alt_km": 35764.000860817105, "timestamp": "2025-12-21T16:47:54.396500+00:00", "meta": {"OBJECT_NAME": "GALAXY 17 (G-17)", "OBJECT_ID": "2007-016B", "EPOCH": "2025-12-21T12:03:49.880160", "MEAN_MOTION": 1.00270125, "ECCENTRICITY": 0.0005342, "INCLINATION": 2.5205, "RA_OF_ASC_NODE": 82.1873, "ARG_OF_PERICENTER": 170.3583, "MEAN_ANOMALY": 293.758, "EPHEMERIS_TYPE": 0, "CLASSIFICATION_TYPE": "U", "NORAD_CAT_ID": 31307, "ELEMENT_SET_NO": 999, "REV_AT_EPOCH": 6802, "BSTAR": 0, "MEAN_MOTION_DOT": -1.85e-06, "MEAN_MOTION_DDOT": 0}, "tle": {"line1": "1 31307U 07016B   25355.50266065 -.00000185  00000+0  00000+0 0  9991", "line2": "2 31307   2.5205  82.1873 0005342 170.3583 293.7580  1.00270125 68028"}}, "geometry": {"type": "Point", "coordinates": [-102.47897157482477, 0.18021498066256694]}}, {"type": "Feature", "properties": {"norad_id": 31862, "name": "DIRECTV 10", "group": "intelsat", "lat": -2.1037001320470912e-05, "lon": -120.3211255478923, "alt_km": 35785.73585732265, "timestamp": "2025-12-21T16:47:54.396512+00:00", "meta": {"OBJECT_NAME": "DIRECTV 10", "OBJECT_ID": "2007-032A", "EPOCH": "2025-12-20T21:18:05.647104", "MEAN_MOTION": 1.00270377, "ECCENTRICITY": 2.73e-05, "INCLINATION": 0.0073, "RA_OF_ASC_NODE": 111.6707, "ARG_OF_PERICENTER": 78.7977, "MEAN_ANOMALY": 115.9664, "EPHEMERIS_TYPE": 0, "CLASSIFICATION_TYPE": "U", "NORAD_CAT_ID": 31862, "ELEMENT_SET_NO": 999, "REV_AT_EPOCH": 4380, "BSTAR": 0, "MEAN_MOTION_DOT": -8e-07, "MEAN_MOTION_DDOT": 0}, "tle": {"line1": "1 31862U 07032A   25354.88756536 -.00000080  00000+0  00000+0 0  9996", "line2": "2 31862   0.0073 111.6707 0000273  78.7977 115.9664  1.00270377 43806"}}, "geometry": {"type": "Point", "coordinates": [-120.3211255478923, -2.1037001320470912e-05]}}, {"type": "Feature", "properties": {"norad_id": 32253, "name": "INTELSAT 11 (IS-11)", "group": "intelsat", "lat": 3.1089217396595403, "lon": 168.67506058340012, "alt_km": 36125.72799036692, "timestamp": "2025-12-21T16:47:54.396523+00:00", "meta": {"OBJECT_NAME": "INTELSAT 11 (IS-11)", "OBJECT_ID": "2007-044B", "EPOCH": "2025-12-21T10:39:51.433056", "MEAN_MOTION": 0.99052571, "ECCENTRICITY": 0.0008532, "INCLINATION": 3.1015, "RA_OF_ASC_NODE": 80.8804, "ARG_OF_PERICENTER": 169.3908, "MEAN_ANOMALY": 187.3652, "EPHEMERIS_TYPE": 0, "CLASSIFICATION_TYPE": "U", "NORAD_CAT_ID": 32253, "ELEMENT_SET_NO": 999, "REV_AT_EPOCH": 6668, "BSTAR": 0, "MEAN_MOTION_DOT": -8.9e-07, "MEAN_MOTION_DDOT": 0}, "tle": {"line1": "1 32253U 07044B   25355.44434529 -.00000089  00000+0  00000+0 0  9991", "line2": "2 32253   3.1015  80.8804 0008532 169.3908 187.3652  0.99052571 66685"}}, "geometry": {"type": "Point", "coordinates": [168.67506058340012, 3.1089217396595403]}}, {"type": "Feature", "properties": {"norad_id": 32388, "name": "HORIZONS-2", "group": "intelsat", "lat": -0.24397078882414983, "lon": -91.30852955927249, "alt_km": 35766.95001364808, "timestamp": "2025-12-21T16:47:54.396535+00:00", "meta": {"OBJECT_NAME": "HORIZONS-2", "OBJECT_ID": "2007-063B", "EPOCH": "2025-12-21T11:14:38.444064", "MEAN_MOTION": 1.00271284, "ECCENTRICITY": 0.0004612, "INCLINATION": 2.1429, "RA_OF_ASC_NODE": 82.8677, "ARG_OF_PERICENTER": 194.4204, "MEAN_ANOMALY": 267.876, "EPHEMERIS_TYPE": 0, "CLASSIFICATION_TYPE": "U", "NORAD_CAT_ID": 32388, "ELEMENT_SET_NO": 999, "REV_AT_EPOCH": 6603, "BSTAR": 0, "MEAN_MOTION_DOT": -2.32e-06, "MEAN_MOTION_DDOT": 0}, "tle": {"line1": "1 32388U 07063B   25355.46850051 -.00000232  00000+0  00000+0 0  9995", "line2": "2 32388   2.1429  82.8677 0004612 194.4204 267.8760  1.00271284 66035"}}, "geometry": {"type": "Point", "coordinates": [-91.30852955927249, -0.24397078882414983]}}, {"type": "Feature", "properties": {"norad_id": 32729, "name": "DIRECTV 11", "group": "intelsat", "lat": -0.021941717897983548, "lon": -116.70522529868715, "alt_km": 35786.12855334385, "timestamp": "2025-12-21T16:47:54.396546+00:00", "meta": {"OBJECT_NAME": "DIRECTV 11", "OBJECT_ID": "2008-013A", "EPOCH": "2025-12-21T08:20:59.119008", "MEAN_MOTION": 1.00270364, "ECCENTRICITY": 4.54e-05, "INCLINATION": 0.0491, "RA_OF_ASC_NODE": 186.3894, "ARG_OF_PERICENTER": 338.0955, "MEAN_ANOMALY": 311.7374, "EPHEMERIS_TYPE": 0, "CLASSIFICATION_TYPE": "U", "NORAD_CAT_ID": 32729, "ELEMENT_SET_NO": 999, "REV_AT_EPOCH": 4381, "BSTAR": 0, "MEAN_MOTION_DOT": -1.03e-06, "MEAN_MOTION_DDOT": 0}, "tle": {"line1": "1 32729U 08013A   25355.34790647 -.00000103  00000+0  00000+0 0  9998", "line2": "2 32729   0.0491 186.3894 0000454 338.0955 311.7374  1.00270364 43819"}}, "geometry": {"type": "Point", "coordinates": [-116.70522529868715, -0.021941717897983548]}}, {"type": "Feature", "properties": {"norad_id": 32951, "name": "GALAXY 18 (G-18)", "group": "intelsat", "lat": -0.0025975543120654618, "lon": -140.5550406801595, "alt_km": 35779.505389868864, "timestamp": "2025-12-21T16:47:54.396558+00:00", "meta": {"OBJECT_NAME": "GALAXY 18 (G-18)", "OBJECT_ID": "2008-024A", "EPOCH": "2025-12-21T08:40:28.061760", "MEAN_MOTION": 1.00271198, "ECCENTRICITY": 0.0002847, "INCLINATION": 0.0183, "RA_OF_ASC_NODE": 61.6385, "ARG_OF_PERICENTER": 214.0045, "MEAN_ANOMALY": 181.6446, "EPHEMERIS_TYPE": 0, "CLASSIFICATION_TYPE": "U", "NORAD_CAT_ID": 32951, "ELEMENT_SET_NO": 999, "REV_AT_EPOCH": 4407, "BSTAR": 0, "MEAN_MOTION_DOT": 4.8e-07, "MEAN_MOTION_DDOT": 0}, "tle": {"line1": "1 32951U 08024A   25355.36143590  .00000048  00000+0  00000+0 0  9995", "line2": "2 32951   0.0183  61.6385 0002847 214.0045 181.6446  1.00271198 44074"}}, "geometry": {"type": "Point", "coordinates": [-140.5550406801595, -0.0025975543120654618]}}]}